# Made by eph2tle, compiled Oct  9 2023 15:42:32
# Run at Thu Oct 19 17:01:35 2023
#
# No updates
#
#    The following TLEs (Two-Line Elements) were generated by fitting
# a numerically-integrated ephemeris,  based on the orbit given below,
# to the SDP4/SGP4 models.  Each TLE is good for the interval between
# its epoch and the epoch of the subsequent TLE (usually one day).
# The maximum deviation between the numerically integrated ephemerides
# and the TLE-based ephemeris, in kilometers,  is given for each TLE
# as the "worst residual".
#
#    This fitting is done using the 'eph2tle' code packaged with Find_Orb.
# The code has details on how the TLEs were computed :
#
#    https://github.com/Bill-Gray/find_orb/eph2tle.cpp
#
#    Be warned:  the error given is that between the numerically
# integrated ephems and the TLE model.  There will usually be at
# least some additional difference between the ephems and the actual
# motion of the satellite,  especially if the ephemerides are based
# on a short arc.  If the following orbital elements say something
# like "[based on] 10 observations 2015 Jan. 1-13",  and the TLEs
# are for 2015 May,  the extrapolation may be tenuous at best.  If
# your application requires a specific level of accuracy,  you may
# want to contact me;  I can give you some idea as to the fit of the
# underlying data (and possibly TLEs based on newer data).
#
#   You can usually find the underlying observational data,  and the
# fitted orbit,  residuals,  ephemerides,  and sometimes some comments
# about the object,  among the pages listed at
#
#    https://www.projectpluto.com/pluto/mpecs/pseudo.htm
#
#    WARNING:  for this object,  "normal" TLEs cannot be fitted.  (This
# usually means an object with an hyperbolic or nearly-parabolic orbit.)
# For this and similar cases,   an alternative model is used,  in which
# most of the traditional TLE data is replaced by six signed 8-digit hex
# numbers.  These six numbers are a state vector,  numerically integrated
# using a simplified force model.  This is necessary for objects at L2 or
# L1,  and sometimes for objects in high orbits where the SDP4/SGP4 model
# fails.  Some documentation is in 'get_el.cpp' in the source code at
# https://www.github.com/Bill-Gray/sat_code ; look for 'hex' in that file,
# with the actual integration done in 'sdp4.cpp'.  But be aware:  it's my
# own extension,  doesn't work with other code,  and is therefore used
# only when necessary.
#
#    Also,  if you use a TLE outside the "correct" time range (between
# its MJD and that of the next TLE),  all bets are off.  I've carefully
# computed and minimized the worst error over the "correct" time frame,
# but the ephemeris may (or may not) diverge wildly outside of it.
#
# Ephem range: 60231.000000 60279.000000 1.000000
# Created Thu Oct 19 17:01:30 2023
# Ephemeris start: 14 Oct 2023  0:00:00
# Ephemeris end:    1 Dec 2023  0:00:00
# Times are all TDT
# Positions/velocities are in equatorial J2000
# Orbital elements:  Psyche booster = 2023-157B = NORAD 58050
#    Perigee 2023 Oct 13.635286 +/- 0.000125 TT = 15:14:48.6 (JD 2460231.135286)
# Epoch 2023 Oct 15.0 TT = JDT 2460232.5                           Find_Orb
# q  7061.649067 +/- 2.79             (J2000 equator)
# H   25.54 G 0.15                    Peri.  300.345384 +/- 0.016
#                                     Node    47.638935 +/- 0.007
# e   1.60056703 +/- 0.000559         Incl.   30.211867 +/- 0.0015
# 19 of 20 observations 2023 Oct. 14-15 (25.5 hr); mean residual 0".246
#
# 1 NoradU COSPAR   Epoch.epoch     dn/dt/2  d2n/dt2/6 BSTAR    T El# C
# 2 NoradU Inclina RAAscNode Eccent  ArgPeri MeanAno  MeanMotion Rev# C

# Worst residual: 10.02 km
# MJD 60231.000000 (2023 Oct 14  0:00)
Psyche booster = 2023-157B = NORAD 58050
1 58050U 23157B   23286.99919926 -0011HLQL +002WIC31 +001KUPJDH 21184
2 58050                          -000D4MR4 +000TIR49 +000H50BC     07

# Worst residual: 11.86 km
# MJD 60232.000000 (2023 Oct 15  0:00)
Psyche booster = 2023-157B = NORAD 58050
1 58050U 23157B   23287.99919926 -0044AYZF +009SULUG +005L7I5BH 21180
2 58050                          -000COKIK +000SELLS +000GIMGE     01

# Worst residual: 1.39 km
# MJD 60233.000000 (2023 Oct 16  0:00)
Psyche booster = 2023-157B = NORAD 58050
1 58050U 23157B   23288.99919926 -0075DXOX +00GLACTM +009JCLQ9H 21187
2 58050                          -000CKWTJ +000S7JEQ +000GEJPS     08

# Worst residual: 1.33 km
# MJD 60234.000000 (2023 Oct 17  0:00)
Psyche booster = 2023-157B = NORAD 58050
1 58050U 23157B   23289.99919926 -00A5TAXD +00NCL4MQ +00DGTUT4H 21181
2 58050                          -000CIR3T +000S48Y7 +000GCM2B     05

# Worst residual: 1.58 km
# MJD 60235.000000 (2023 Oct 18  0:00)
Psyche booster = 2023-157B = NORAD 58050
1 58050U 23157B   23290.99919926 -00D5S26F +00U390SE +00HDXJIBH 21185
2 58050                          -000CGZEB +000S21XE +000GBARD     04

# Worst residual: 1.91 km
# MJD 60236.000000 (2023 Oct 19  0:00)
Psyche booster = 2023-157B = NORAD 58050
1 58050U 23157B   23291.99919926 -00G5C0EU +010TFXW1 +00LAQZGOH 21188
2 58050                          -000CFAKX +000S096I +000GA7D5     08

# Worst residual: 2.30 km
# MJD 60237.000000 (2023 Oct 20  0:00)
Psyche booster = 2023-157B = NORAD 58050
1 58050U 23157B   23292.99919926 -00J4H85P +017J80BL +00P7BBUMH 21182
2 58050                          -000CDJZW +000RYL5J +000G96CC     01

# Worst residual: 2.75 km
# MJD 60238.000000 (2023 Oct 21  0:00)
Psyche booster = 2023-157B = NORAD 58050
1 58050U 23157B   23293.99919926 -00M36XW9 +01E8LR7P +00T3MSGTH 21180
2 58050                          -000CBOZT +000RWXBS +000G8517     02

# Worst residual: 3.28 km
# MJD 60239.000000 (2023 Oct 22  0:00)
Psyche booster = 2023-157B = NORAD 58050
1 58050U 23157B   23294.99919926 -00P1FUOW +01KXKWLV +00WZP3S0H 21189
2 58050                          -000C9NLP +000RV77R +000G71XE     02

# Worst residual: 3.86 km
# MJD 60240.000000 (2023 Oct 23  0:00)
Psyche booster = 2023-157B = NORAD 58050
1 58050U 23157B   23295.99919926 -00RZ67HI +01RM4PQ8 +010VHPTSH 21182
2 58050                          -000C7E06 +000RTDB5 +000G5W2A     06

# Worst residual: 4.46 km
# MJD 60241.000000 (2023 Oct 24  0:00)
Psyche booster = 2023-157B = NORAD 58050
1 58050U 23157B   23296.99919926 -00UWBT9F +01YA85GU +014QZVS9H 21183
2 58050                          -000C4UAK +000RREOU +000G4MSG     09

# Worst residual: 5.00 km
# MJD 60242.000000 (2023 Oct 25  0:00)
Psyche booster = 2023-157B = NORAD 58050
1 58050U 23157B   23297.99919926 -00XSTZOE +024XU0TH +018M6Q9ZH 21187
2 58050                          -000C1YCS +000RPAWO +000G39PB     04

# Worst residual: 5.37 km
# MJD 60243.000000 (2023 Oct 26  0:00)
Psyche booster = 2023-157B = NORAD 58050
1 58050U 23157B   23298.99919926 -010OLJ4M +02BKX2YT +01CH1BH4H 21183
2 58050                          -000BYNUL +000RN200 +000G1SN7     01

# Worst residual: 5.56 km
# MJD 60244.000000 (2023 Oct 27  0:00)
Psyche booster = 2023-157B = NORAD 58050
1 58050U 23157B   23299.99919926 -013JIN2R +02I7G5RX +01GBIPEJH 21180
2 58050                          -000BUWAK +000RKOK6 +000G07QQ     04

# Worst residual: 5.62 km
# MJD 60245.000000 (2023 Oct 28  0:00)
Psyche booster = 2023-157B = NORAD 58050
1 58050U 23157B   23300.99919926 -016DGXH1 +02OTEASH +01K5M0K8H 21186
2 58050                          -000BQL83 +000RI7S0 +000FYJG2     01

# Worst residual: 5.66 km
# MJD 60246.000000 (2023 Oct 29  0:00)
Psyche booster = 2023-157B = NORAD 58050
1 58050U 23157B   23301.99919926 -0196BFX1 +02VEQWCO +01NZAIOIH 21183
2 58050                          -000BLOFI +000RFPES +000FWSIG     01

# Worst residual: 5.82 km
# MJD 60247.000000 (2023 Oct 30  0:00)
Psyche booster = 2023-157B = NORAD 58050
1 58050U 23157B   23302.99919926 -01BXWQNW +031ZHU1O +01RSJP7FH 21188
2 58050                          -000BG44Y +000RD7O1 +000FUZYF     07

# Worst residual: 6.14 km
# MJD 60248.000000 (2023 Oct 31  0:00)
Psyche booster = 2023-157B = NORAD 58050
1 58050U 23157B   23303.99919926 -01EO310W +038JNJTV +01VLDB4MH 21186
2 58050                          -000B9V4T +000RAT0S +000FT6YE     00

# Worst residual: 6.57 km
# MJD 60249.000000 (2023 Nov  1  0:00)
Psyche booster = 2023-157B = NORAD 58050
1 58050U 23157B   23304.99919926 -01HCOAB8 +03F393HL +01ZDRDY4H 21188
2 58050                          -000B2WRR +000R8K0V +000FREQY     01

# Worst residual: 7.01 km
# MJD 60250.000000 (2023 Nov  2  0:00)
Psyche booster = 2023-157B = NORAD 58050
1 58050U 23157B   23305.99919926 -01JZIEFO +03LMC4MG +0235Q9TXH 21184
2 58050                          -000AV8W5 +000R6J5J +000FPOK0     05

# Worst residual: 7.37 km
# MJD 60251.000000 (2023 Nov  3  0:00)
Psyche booster = 2023-157B = NORAD 58050
1 58050U 23157B   23306.99919926 -01MKF9N3 +03S4YVMR +026XAL73H 21186
2 58050                          -000AMVPO +000R4SQJ +000FO1IW     06

# Worst residual: 7.64 km
# MJD 60252.000000 (2023 Nov  4  0:00)
Psyche booster = 2023-157B = NORAD 58050
1 58050U 23157B   23307.99919926 -01P38V7Y +03YN8491 +02AOH80UH 21183
2 58050                          -000ADTPF +000R3EXA +000FMIPW     04

# Worst residual: 7.82 km
# MJD 60253.000000 (2023 Nov  5  0:00)
Psyche booster = 2023-157B = NORAD 58050
1 58050U 23157B   23308.99919926 -01RJTBCR +04557435 +02EFBB45H 21185
2 58050                          -000A43IN +000R2FPG +000FL54D     09

# Worst residual: 7.97 km
# MJD 60254.000000 (2023 Nov  6  0:00)
Psyche booster = 2023-157B = NORAD 58050
1 58050U 23157B   23309.99919926 -01TXYWDU +04BMZLD0 +02I5U7GHH 21180
2 58050                          -0009TPX9 +000R1WY0 +000FJXN8     08

# Worst residual: 8.16 km
# MJD 60255.000000 (2023 Nov  7  0:00)
Psyche booster = 2023-157B = NORAD 58050
1 58050U 23157B   23310.99919926 -01W9K3T9 +04I4PPXI +02LW3HQ2H 21180
2 58050                          -0009IPT0 +000R1WEH +000FIX5P     06

